ONEWEB-0709             
1 55172U 23004AJ  25001.79734304  .00000767  00000+0  21289-2 0  9997
2 55172  87.8904 127.0003 0002066 132.3133 227.8170 13.11418350 96224
ONEWEB-0710             
1 55173U 23004AK  25001.57465233  .00000053  00000+0  10251-3 0  9992
2 55173  87.9101 111.8005 0001750 101.4659 258.6669 13.17649214 97572
ONEWEB-0711             
1 55174U 23004AL  25001.76850618  .00000136  00000+0  34865-3 0  9998
2 55174  87.8908 126.9742 0002269  89.2895 270.8493 13.11421978 96189
ONEWEB-0713             
1 55175U 23004AM  25001.63455233  .00000619  00000+0  17111-2 0  9999
2 55175  87.8906 127.0088 0001789  96.2180 263.9152 13.11420779 96154
ONEWEB-0715             
1 55176U 23004AN  25001.62946649  .00000430  00000+0  11778-2 0  9999
2 55176  87.8909 127.0102 0001825 113.3426 246.7894 13.11420711 96192
ONEWEB-0716             
1 55177U 23004AP  25002.25131636  .00000073  00000+0  15366-3 0  9993
2 55177  87.9103 111.6614 0001425 101.3146 258.8146 13.17650763 97664
ONEWEB-0717             
1 55178U 23004AQ  25002.31039838 -.00000002  00000+0 -38181-4 0  9997
2 55178  87.9093 111.6113 0002541  97.8855 262.2565 13.17649720 97725
ONEWEB-0719             
1 55179U 23004AR  25001.56113907  .00000128  00000+0  29651-3 0  9992
2 55179  87.9104 111.7455 0001513  96.8562 263.2742 13.17650598 97577
ONEWEB-0530             
1 55796U 23029A   25002.33838896  .00000050  00000+0  90064-4 0  9992
2 55796  87.9249  20.0951 0002232  80.6630 279.4756 13.20772106 91786
ONEWEB-0534             
1 55797U 23029B   25002.32575890  .00000057  00000+0  10867-3 0  9993
2 55797  87.9246  20.1049 0001677  89.0916 271.0410 13.20771629 91071
ONEWEB-0556             
1 55798U 23029C   25002.48358311  .00000077  00000+0  15628-3 0  9990
2 55798  87.9248  20.0663 0001844  64.1158 296.0165 13.20771014 91097
ONEWEB-0562             
1 55799U 23029D   25002.31944910  .00000103  00000+0  22248-3 0  9995
2 55799  87.9247  20.0907 0002365  67.8682 292.2702 13.20771555 91072
ONEWEB-0563             
1 55800U 23029E   25002.46464852  .00000171  00000+0  38784-3 0  9993
2 55800  87.9248  20.0765 0001446  90.1253 270.0046 13.20771910 91081
ONEWEB-0564             
1 55801U 23029F   25002.45833706  .00000143  00000+0  31893-3 0  9994
2 55801  87.9247  20.0650 0002094  82.4084 277.7287 13.20771923 91805
ONEWEB-0638             
1 55802U 23029G   25002.47152502  .00000086  00000+0  19642-3 0  9999
2 55802  87.8990  35.2932 0001630  75.1053 285.0257 13.14502579 89674
ONEWEB-0639             
1 55803U 23029H   25002.84508881  .00000395  00000+0  95442-3 0  9991
2 55803  87.9159  50.4267 0001001 141.0055 219.1150 13.19726259 89645
ONEWEB-0640             
1 55804U 23029J   25002.32879373 -.00000038  00000+0 -13798-3 0  9992
2 55804  87.8988  35.3134 0001185  72.9335 287.1925 13.14505637 90351
ONEWEB-0641             
1 55805U 23029K   25002.84033644  .00001231  00000+0  30419-2 0  9995
2 55805  87.9163  50.4041 0001751 103.2739 256.8589 13.19734239 89655
ONEWEB-0642             
1 55806U 23029L   25002.38069808  .00000023  00000+0  24138-4 0  9997
2 55806  87.9162  50.5266 0001451 131.0623 229.0635 13.19725614 88899
ONEWEB-0643             
1 55807U 23029M   25002.37478324  .00000261  00000+0  66990-3 0  9999
2 55807  87.8992  35.2840 0001808 125.1496 234.9804 13.14505553 90367
ONEWEB-0644             
1 55808U 23029N   25002.37596629  .00000072  00000+0  14725-3 0  9998
2 55808  87.9164  50.5279 0001557 116.6892 243.4400 13.19725936 89585
ONEWEB-0645             
1 55809U 23029P   25001.38639742  .00000096  00000+0  20794-3 0  9992
2 55809  87.9164  50.7235 0001501  94.7472 265.3832 13.19724997 88766
ONEWEB-0646             
1 55810U 23029Q   25002.85693000 -.00000023  00000+0 -88892-4 0  9990
2 55810  87.9161  50.4265 0001741 106.9063 253.2261 13.19724769 88942
ONEWEB-0648             
1 55811U 23029R   25002.34307503 -.00000167  00000+0 -48473-3 0  9994
2 55811  87.8994  35.2637 0000932 121.6470 238.4750 13.14504276 89658
ONEWEB-0649             
1 55812U 23029S   25002.36490718  .00000079  00000+0  16442-3 0  9999
2 55812  87.9159  50.5170 0001334 108.6353 251.4925 13.19726076 89600
ONEWEB-0650             
1 55813U 23029T   25002.36017035 -.00000079  00000+0 -23056-3 0  9998
2 55813  87.9163  50.5240 0001716 103.6162 256.5162 13.19725119 88886
ONEWEB-0652             
1 55814U 23029U   25002.32403689 -.00000102  00000+0 -31089-3 0  9991
2 55814  87.8988  35.2785 0002019  92.1536 267.9825 13.14501902 90319
ONEWEB-0653             
1 55815U 23029V   25002.38430041  .00000237  00000+0  60356-3 0  9996
2 55815  87.8993  35.2515 0001835  87.7014 272.4326 13.14501465 89660
ONEWEB-0654             
1 55816U 23029W   25002.37955248  .00000277  00000+0  71321-3 0  9995
2 55816  87.8993  35.2573 0002157  85.2356 274.9020 13.14503783 90378
ONEWEB-0656             
1 55817U 23029X   25002.45201629  .00000113  00000+0  24667-3 0  9992
2 55817  87.9247  20.0077 0002435  87.6890 272.4522 13.20770465 91776
ONEWEB-0657             
1 55818U 23029Y   25002.88614694 -.00000124  00000+0 -34169-3 0  9992
2 55818  87.9158  50.4239 0002739 104.3141 255.8296 13.19724742 89649
ONEWEB-0658             
1 55819U 23029Z   25002.88140718 -.00000079  00000+0 -22935-3 0  9991
2 55819  87.9159  50.3592 0001646 113.7728 246.3578 13.19725027 89659
ONEWEB-0660             
1 55820U 23029AA  25002.35733812 -.00000079  00000+0 -24699-3 0  9997
2 55820  87.8990  35.2343 0001398  92.0390 268.0900 13.14505167 90374
ONEWEB-0661             
1 55821U 23029AB  25002.84894213  .00000331  00000+0  85753-3 0  9992
2 55821  87.8988  35.2056 0001421  86.3706 273.7586 13.14503215 90406
ONEWEB-0662             
1 55822U 23029AC  25002.35099612 -.00000107  00000+0 -32396-3 0  9997
2 55822  87.8992  35.3117 0001380  97.0306 263.0981 13.14505229 89697
ONEWEB-0663             
1 55823U 23029AD  25002.44034082  .00000173  00000+0  39431-3 0  9996
2 55823  87.9249  20.0688 0001352  93.4181 266.7107 13.20819879 91080
ONEWEB-0664             
1 55824U 23029AE  25002.28787626  .00000085  00000+0  17797-3 0  9991
2 55824  87.9247  20.1158 0001802  76.3975 283.7359 13.20771128 91759
ONEWEB-0665             
1 55825U 23029AF  25002.84576431  .00000225  00000+0  57245-3 0  9992
2 55825  87.8991  35.1807 0001507  96.2087 263.9214 13.14501264 90427
ONEWEB-0666             
1 55826U 23029AG  25001.75127022  .00000119  00000+0  26015-3 0  9993
2 55826  87.9249  20.2121 0002167  89.7123 270.4259 13.20771841 91004
ONEWEB-0667             
1 55827U 23029AH  25002.27523512 -.00002731  00000+0 -67501-2 0  9994
2 55827  87.9245  20.0407 0001542  87.5655 272.5655 13.20782844 91062
ONEWEB-0669             
1 55828U 23029AJ  25002.27052275  .00000019  00000+0  13589-4 0  9992
2 55828  87.9247  20.0780 0002400  77.9100 282.2302 13.20772503 91069
ONEWEB-0670             
1 55829U 23029AK  25002.36685778  .00000169  00000+0  42109-3 0  9998
2 55829  87.8993  35.2885 0001489  80.6571 279.4727 13.14502585 89699
ONEWEB-0671             
1 55830U 23029AL  25002.87667713 -.00000091  00000+0 -25965-3 0  9992
2 55830  87.9158  50.4212 0001627  89.4114 270.7205 13.19724526 88951
ONEWEB-0672             
1 55831U 23029AM  25002.34154631  .00000147  00000+0  33003-3 0  9997
2 55831  87.9246  20.0488 0002169  91.7535 268.3847 13.20772059 91071
ONEWEB-0673             
1 55832U 23029AN  25002.85298341  .00000036  00000+0  56823-4 0  9994
2 55832  87.9158  50.3909 0001688 105.6627 254.4692 13.19725300 89661
ONEWEB-0674             
1 55833U 23029AP  25002.33513009 -.00007840  00000+0 -21189-1 0  9995
2 55833  87.8988  35.2903 0002251  71.1328 289.0045 13.14539598 90351
ONEWEB-0675             
1 55834U 23029AQ  25001.42824998  .00000047  00000+0  83984-4 0  9991
2 55834  87.9164  50.7162 0002064 105.8719 254.2641 13.19725342 88788
ONEWEB-0720             
1 55835U 23029AR  25002.86087522  .00000193  00000+0  44981-3 0  9990
2 55835  87.9159  50.4289 0001375 106.6808 253.4476 13.19725661 89582
ONEWEB-0537             
1 56046U 23043A   25002.88780668 -.00000003  00000+0 -42100-4 0  9998
2 56046  87.9090 334.4178 0002012  88.2742 271.8619 13.16596449 90092
ONEWEB-0538             
1 56047U 23043B   25002.34948918 -.00002356  00000+0 -61966-2 0  9996
2 56047  87.9094 334.5461 0001635  93.0765 267.0553 13.16610116 90038
ONEWEB-0546             
1 56048U 23043C   25002.33683021  .00000008  00000+0 -13687-4 0  9997
2 56048  87.9097 334.5160 0002529  85.9670 274.1750 13.16596756 90026
ONEWEB-0547             
1 56049U 23043D   25002.92042704 -.00000087  00000+0 -24182-3 0  9999
2 56049  87.9298 349.6316 0001754  92.4085 267.7250 13.21825244 88171
ONEWEB-0548             
1 56050U 23043E   25002.89413213 -.00000067  00000+0 -20757-3 0  9996
2 56050  87.9093 334.4465 0001764  66.7196 293.4120 13.16597291 89187
ONEWEB-0549             
1 56051U 23043F   25002.38187461  .00000188  00000+0  42374-3 0  9995
2 56051  87.9300 349.7399 0001552  99.9004 260.2305 13.21827370 88103
ONEWEB-0550             
1 56052U 23043G   25002.89913044  .00000094  00000+0  19518-3 0  9996
2 56052  87.9291 349.6376 0001738  82.3082 277.8250 13.21824551 88173
ONEWEB-0551             
1 56053U 23043H   25002.42718274  .00000075  00000+0  16467-3 0  9993
2 56053  87.9065   4.9089 0001592  94.3036 265.8276 13.15546198 86618
ONEWEB-0552             
1 56054U 23043J   25002.89282125 -.00000043  00000+0 -13522-3 0  9992
2 56054  87.9300 349.6485 0001529  82.6590 277.4717 13.21823893 88174
ONEWEB-0553             
1 56055U 23043K   25002.34318063  .00000125  00000+0  29453-3 0  9993
2 56055  87.9095 334.5444 0002076  86.4378 273.6990 13.16595002 89127
ONEWEB-0554             
1 56056U 23043L   25001.34252855  .00000274  00000+0  68235-3 0  9995
2 56056  87.9101 334.7697 0001633  62.1792 297.9505 13.16596738 88977
